{
  "norad_id": 67404,
  "name": "STARLINK-36484",
  "history": [
    {
      "epoch": "2026-03-28T19:22:32.855808",
      "apogee_km": 483.1656668479982,
      "perigee_km": 482.7118752965007,
      "latitude_deg": -40.83338555335121,
      "longitude_deg": -82.09682688000612,
      "semi_major_axis_km": 6861.075771072249,
      "eccentricity": 3.307e-05,
      "inclination_deg": 43.0037,
      "raan_deg": 129.728,
      "arg_perigee_deg": 305.8266,
      "mean_anomaly_deg": 54.2555,
      "mean_motion_rev_day": 15.27616845
    }
  ]
}