{"fetched_at":"2026-03-30T06:02:59Z","count":15439,"tles":[{"name":"STARLINK-36484","line1":"1 67404U 26005A   26087.80732472  .00023959  00000+0  87637-3 0  9991","line2":"2 67404  43.0037 129.7280 0000330 305.8266  54.2555 15.27616845 11626","category":"Starlink"}]}